{
  "type": "FeatureCollection",
  "features": [
    {
      "type": "Feature",
      "properties": {
        "name": "Exhibit \u201cA\u201d parcel",
        "area_acres": 0.9149,
        "description": "Exhibit \u201cA\u201d \u2014 part of the NW 1/4 of Section 15, T8S R7E, Bedford Township, Monroe County, Michigan. Shape and dimensions are exact per the deed; absolute position depends on the Section 15 North 1/4 corner coordinate used as the anchor."
      },
      "geometry": {
        "type": "Polygon",
        "coordinates": [
          [
            [
              -83.57886393645717,
              41.79351389078004
            ],
            [
              -83.57944326054857,
              41.79351370161517
            ],
            [
              -83.57945392525663,
              41.7928278269444
            ],
            [
              -83.57886396659922,
              41.7928278269444
            ],
            [
              -83.57886393645717,
              41.79351389078004
            ]
          ]
        ]
      }
    },
    {
      "type": "Feature",
      "properties": {
        "name": "Point of Beginning"
      },
      "geometry": {
        "type": "Point",
        "coordinates": [
          -83.57886393645717,
          41.79351389078004
        ]
      }
    },
    {
      "type": "Feature",
      "properties": {
        "name": "North 1/4 corner, Section 15 (anchor)"
      },
      "geometry": {
        "type": "Point",
        "coordinates": [
          -83.5788357,
          41.7935139
        ]
      }
    }
  ]
}